{
    "links": {
        "self": "http://www.neowsapp.com/rest/v1/neo/3590304?api_key=iIulBulltgU6a56xZRHN4H3l9WmuAYTsLGpBGhQ2"
    },
    "id": "3590304",
    "neo_reference_id": "3590304",
    "name": "(2011 XL1)",
    "designation": "2011 XL1",
    "nasa_jpl_url": "http://ssd.jpl.nasa.gov/sbdb.cgi?sstr=3590304",
    "absolute_magnitude_h": 22.233,
    "estimated_diameter": {
        "kilometers": {
            "estimated_diameter_min": 0.0950506249,
            "estimated_diameter_max": 0.2125396587
        },
        "meters": {
            "estimated_diameter_min": 95.0506249381,
            "estimated_diameter_max": 212.5396586654
        },
        "miles": {
            "estimated_diameter_min": 0.0590617019,
            "estimated_diameter_max": 0.1320659802
        },
        "feet": {
            "estimated_diameter_min": 311.8458923219,
            "estimated_diameter_max": 697.3086137358
        }
    },
    "is_potentially_hazardous_asteroid": false,
    "close_approach_data": [
        {
            "close_approach_date": "2011-11-15",
            "close_approach_date_full": "2011-Nov-15 07:01",
            "epoch_date_close_approach": 1321340460000,
            "relative_velocity": {
                "kilometers_per_second": "5.2687844139",
                "kilometers_per_hour": "18967.6238898777",
                "miles_per_hour": "11785.7438553521"
            },
            "miss_distance": {
                "astronomical": "0.3562246825",
                "lunar": "138.5714014925",
                "kilometers": "53290453.743426275",
                "miles": "33113152.478881595"
            },
            "orbiting_body": "Earth"
        }
    ],
    "orbital_data": {
        "orbit_id": "3",
        "orbit_determination_date": "2017-04-07 19:29:42",
        "first_observation_date": "2011-12-01",
        "last_observation_date": "2011-12-05",
        "data_arc_in_days": 4,
        "observations_used": 11,
        "orbit_uncertainty": "9",
        "minimum_orbit_intersection": ".344794",
        "jupiter_tisserand_invariant": "3.186",
        "epoch_osculation": "2455897.5",
        "eccentricity": ".5051899740469462",
        "semi_major_axis": "2.623654950497815",
        "inclination": "11.16835412145829",
        "ascending_node_longitude": "89.43153192933768",
        "orbital_period": "1552.238690600723",
        "perihelion_distance": "1.298210774147682",
        "perihelion_argument": "310.3591113778567",
        "aphelion_distance": "3.949099126847949",
        "perihelion_time": "2455861.208121146468",
        "mean_anomaly": "8.416924836614706",
        "mean_motion": ".2319230941606528",
        "equinox": "J2000",
        "orbit_class": {
            "orbit_class_type": "AMO",
            "orbit_class_description": "Near-Earth asteroid orbits similar to that of 1221 Amor",
            "orbit_class_range": "1.017 AU < q (perihelion) < 1.3 AU"
        }
    },
    "is_sentry_object": false
}